[{"OBJECT_NAME":"STARLINK-35605","OBJECT_ID":"2025-240E","EPOCH":"2026-03-09T06:22:28.773984","MEAN_MOTION":15.30197953,"ECCENTRICITY":0.00013155,"INCLINATION":53.1594,"RA_OF_ASC_NODE":64.7737,"ARG_OF_PERICENTER":76.9525,"MEAN_ANOMALY":283.1623,"EPHEMERIS_TYPE":0,"CLASSIFICATION_TYPE":"U","NORAD_CAT_ID":66150,"ELEMENT_SET_NO":999,"REV_AT_EPOCH":2192,"BSTAR":0.0012882502,"MEAN_MOTION_DOT":0.00037988,"MEAN_MOTION_DDOT":0},{"OBJECT_NAME":"STARLINK-35540","OBJECT_ID":"2025-240F","EPOCH":"2026-03-09T07:09:25.456320","MEAN_MOTION":15.30192894,"ECCENTRICITY":0.00012047,"INCLINATION":53.1601,"RA_OF_ASC_NODE":64.266,"ARG_OF_PERICENTER":99.8588,"MEAN_ANOMALY":260.2549,"EPHEMERIS_TYPE":0,"CLASSIFICATION_TYPE":"U","NORAD_CAT_ID":66151,"ELEMENT_SET_NO":999,"REV_AT_EPOCH":2193,"BSTAR":0.00087397443,"MEAN_MOTION_DOT":0.00025609,"MEAN_MOTION_DDOT":0},{"OBJECT_NAME":"STARLINK-35455","OBJECT_ID":"2025-240G","EPOCH":"2026-03-09T06:39:12.012768","MEAN_MOTION":15.30198458,"ECCENTRICITY":0.00012783,"INCLINATION":53.1588,"RA_OF_ASC_NODE":64.8501,"ARG_OF_PERICENTER":91.8307,"MEAN_ANOMALY":268.284,"EPHEMERIS_TYPE":0,"CLASSIFICATION_TYPE":"U","NORAD_CAT_ID":66152,"ELEMENT_SET_NO":999,"REV_AT_EPOCH":2192,"BSTAR":0.00089014376,"MEAN_MOTION_DOT":0.00026096,"MEAN_MOTION_DDOT":0},{"OBJECT_NAME":"STARLINK-34752","OBJECT_ID":"2025-240H","EPOCH":"2026-03-09T10:13:08.148864","MEAN_MOTION":15.30200647,"ECCENTRICITY":0.00011088,"INCLINATION":53.1597,"RA_OF_ASC_NODE":64.3528,"ARG_OF_PERICENTER":102.6547,"MEAN_ANOMALY":257.4578,"EPHEMERIS_TYPE":0,"CLASSIFICATION_TYPE":"U","NORAD_CAT_ID":66153,"ELEMENT_SET_NO":999,"REV_AT_EPOCH":2194,"BSTAR":0.00055958175,"MEAN_MOTION_DOT":0.00016251,"MEAN_MOTION_DDOT":0},{"OBJECT_NAME":"STARLINK-34625","OBJECT_ID":"2025-240J","EPOCH":"2026-03-09T06:36:09.397728","MEAN_MOTION":15.30195583,"ECCENTRICITY":0.00011491,"INCLINATION":53.159,"RA_OF_ASC_NODE":64.8322,"ARG_OF_PERICENTER":73.3592,"MEAN_ANOMALY":286.7535,"EPHEMERIS_TYPE":0,"CLASSIFICATION_TYPE":"U","NORAD_CAT_ID":66154,"ELEMENT_SET_NO":999,"REV_AT_EPOCH":2197,"BSTAR":0.00096644027,"MEAN_MOTION_DOT":0.00028369,"MEAN_MOTION_DDOT":0},{"OBJECT_NAME":"STARLINK-35580","OBJECT_ID":"2025-240K","EPOCH":"2026-03-09T06:07:17.060448","MEAN_MOTION":15.3019797,"ECCENTRICITY":0.00012036,"INCLINATION":53.1604,"RA_OF_ASC_NODE":64.7055,"ARG_OF_PERICENTER":80.4775,"MEAN_ANOMALY":279.6362,"EPHEMERIS_TYPE":0,"CLASSIFICATION_TYPE":"U","NORAD_CAT_ID":66155,"ELEMENT_SET_NO":999,"REV_AT_EPOCH":2192,"BSTAR":0.00072656172,"MEAN_MOTION_DOT":0.0002122,"MEAN_MOTION_DDOT":0},{"OBJECT_NAME":"STARLINK-35621","OBJECT_ID":"2025-240L","EPOCH":"2026-03-09T10:04:01.217856","MEAN_MOTION":15.30193577,"ECCENTRICITY":0.0001578,"INCLINATION":53.1595,"RA_OF_ASC_NODE":64.3121,"ARG_OF_PERICENTER":94.7303,"MEAN_ANOMALY":265.3878,"EPHEMERIS_TYPE":0,"CLASSIFICATION_TYPE":"U","NORAD_CAT_ID":66156,"ELEMENT_SET_NO":999,"REV_AT_EPOCH":2194,"BSTAR":0.0008928967,"MEAN_MOTION_DOT":0.00026174,"MEAN_MOTION_DDOT":0},{"OBJECT_NAME":"STARLINK-35594","OBJECT_ID":"2025-240M","EPOCH":"2026-03-09T08:52:35.921280","MEAN_MOTION":15.30198855,"ECCENTRICITY":0.0001623,"INCLINATION":53.1614,"RA_OF_ASC_NODE":64.0013,"ARG_OF_PERICENTER":75.4773,"MEAN_ANOMALY":284.6408,"EPHEMERIS_TYPE":0,"CLASSIFICATION_TYPE":"U","NORAD_CAT_ID":66157,"ELEMENT_SET_NO":999,"REV_AT_EPOCH":2194,"BSTAR":0.0014099038,"MEAN_MOTION_DOT":0.00041631,"MEAN_MOTION_DDOT":0},{"OBJECT_NAME":"STARLINK-35587","OBJECT_ID":"2025-240N","EPOCH":"2026-03-09T04:59:03.665184","MEAN_MOTION":15.30198884,"ECCENTRICITY":0.00012145,"INCLINATION":53.1592,"RA_OF_ASC_NODE":65.1221,"ARG_OF_PERICENTER":79.6343,"MEAN_ANOMALY":280.4795,"EPHEMERIS_TYPE":0,"CLASSIFICATION_TYPE":"U","NORAD_CAT_ID":66158,"ELEMENT_SET_NO":999,"REV_AT_EPOCH":2191,"BSTAR":0.00071101191,"MEAN_MOTION_DOT":0.00020757,"MEAN_MOTION_DDOT":0},{"OBJECT_NAME":"STARLINK-35586","OBJECT_ID":"2025-240P","EPOCH":"2026-03-09T06:58:57.084672","MEAN_MOTION":15.30199855,"ECCENTRICITY":0.00012006,"INCLINATION":53.1591,"RA_OF_ASC_NODE":64.9288,"ARG_OF_PERICENTER":82.9425,"MEAN_ANOMALY":277.1712,"EPHEMERIS_TYPE":0,"CLASSIFICATION_TYPE":"U","NORAD_CAT_ID":66159,"ELEMENT_SET_NO":999,"REV_AT_EPOCH":2192,"BSTAR":0.00094324194,"MEAN_MOTION_DOT":0.00027681,"MEAN_MOTION_DDOT":0},{"OBJECT_NAME":"STARLINK-35636","OBJECT_ID":"2025-240Q","EPOCH":"2026-03-09T06:57:26.020800","MEAN_MOTION":15.30193151,"ECCENTRICITY":0.00012597,"INCLINATION":53.1594,"RA_OF_ASC_NODE":64.9254,"ARG_OF_PERICENTER":85.355,"MEAN_ANOMALY":274.7594,"EPHEMERIS_TYPE":0,"CLASSIFICATION_TYPE":"U","NORAD_CAT_ID":66160,"ELEMENT_SET_NO":999,"REV_AT_EPOCH":2192,"BSTAR":0.00096814217,"MEAN_MOTION_DOT":0.00028418,"MEAN_MOTION_DDOT":0},{"OBJECT_NAME":"STARLINK-35635","OBJECT_ID":"2025-240R","EPOCH":"2026-03-09T06:34:38.166240","MEAN_MOTION":15.30188527,"ECCENTRICITY":0.00012187,"INCLINATION":53.1592,"RA_OF_ASC_NODE":64.826,"ARG_OF_PERICENTER":80.9954,"MEAN_ANOMALY":279.1185,"EPHEMERIS_TYPE":0,"CLASSIFICATION_TYPE":"U","NORAD_CAT_ID":66161,"ELEMENT_SET_NO":999,"REV_AT_EPOCH":2192,"BSTAR":0.00039263927,"MEAN_MOTION_DOT":0.00011283,"MEAN_MOTION_DDOT":0},{"OBJECT_NAME":"STARLINK-35633","OBJECT_ID":"2025-240S","EPOCH":"2026-03-09T06:10:18.996384","MEAN_MOTION":15.30186772,"ECCENTRICITY":0.00014847,"INCLINATION":53.1605,"RA_OF_ASC_NODE":64.7039,"ARG_OF_PERICENTER":115.4098,"MEAN_ANOMALY":244.7056,"EPHEMERIS_TYPE":0,"CLASSIFICATION_TYPE":"U","NORAD_CAT_ID":66162,"ELEMENT_SET_NO":999,"REV_AT_EPOCH":2192,"BSTAR":0.00045942391,"MEAN_MOTION_DOT":0.00013266,"MEAN_MOTION_DDOT":0},{"OBJECT_NAME":"STARLINK-35607","OBJECT_ID":"2025-240T","EPOCH":"2026-03-09T06:02:43.545696","MEAN_MOTION":15.3018724,"ECCENTRICITY":0.00014222,"INCLINATION":53.1606,"RA_OF_ASC_NODE":64.6754,"ARG_OF_PERICENTER":68.9659,"MEAN_ANOMALY":291.1494,"EPHEMERIS_TYPE":0,"CLASSIFICATION_TYPE":"U","NORAD_CAT_ID":66163,"ELEMENT_SET_NO":999,"REV_AT_EPOCH":2192,"BSTAR":0.00082578914,"MEAN_MOTION_DOT":0.00024168,"MEAN_MOTION_DDOT":0},{"OBJECT_NAME":"STARLINK-35614","OBJECT_ID":"2025-240U","EPOCH":"2026-03-09T08:34:31.297152","MEAN_MOTION":15.30198884,"ECCENTRICITY":0.00013363,"INCLINATION":53.1592,"RA_OF_ASC_NODE":64.6241,"ARG_OF_PERICENTER":89.4676,"MEAN_ANOMALY":270.6478,"EPHEMERIS_TYPE":0,"CLASSIFICATION_TYPE":"U","NORAD_CAT_ID":66164,"ELEMENT_SET_NO":999,"REV_AT_EPOCH":2193,"BSTAR":0.00057529529,"MEAN_MOTION_DOT":0.00016717,"MEAN_MOTION_DDOT":0},{"OBJECT_NAME":"STARLINK-35575","OBJECT_ID":"2025-240V","EPOCH":"2026-03-09T06:49:49.922112","MEAN_MOTION":15.30200551,"ECCENTRICITY":0.00011551,"INCLINATION":53.1591,"RA_OF_ASC_NODE":64.8826,"ARG_OF_PERICENTER":90.4832,"MEAN_ANOMALY":269.6301,"EPHEMERIS_TYPE":0,"CLASSIFICATION_TYPE":"U","NORAD_CAT_ID":66165,"ELEMENT_SET_NO":999,"REV_AT_EPOCH":2192,"BSTAR":0.0012026056,"MEAN_MOTION_DOT":0.00035429,"MEAN_MOTION_DDOT":0},{"OBJECT_NAME":"STARLINK-35624","OBJECT_ID":"2025-240W","EPOCH":"2026-03-09T07:13:58.558080","MEAN_MOTION":15.30210705,"ECCENTRICITY":0.00013583,"INCLINATION":53.1608,"RA_OF_ASC_NODE":64.2741,"ARG_OF_PERICENTER":76.9142,"MEAN_ANOMALY":283.201,"EPHEMERIS_TYPE":0,"CLASSIFICATION_TYPE":"U","NORAD_CAT_ID":66166,"ELEMENT_SET_NO":999,"REV_AT_EPOCH":2193,"BSTAR":0.00083633548,"MEAN_MOTION_DOT":0.00024501,"MEAN_MOTION_DDOT":0},{"OBJECT_NAME":"STARLINK-35641","OBJECT_ID":"2025-240X","EPOCH":"2026-03-09T05:53:35.602944","MEAN_MOTION":15.30209461,"ECCENTRICITY":0.00039167,"INCLINATION":53.1603,"RA_OF_ASC_NODE":64.6326,"ARG_OF_PERICENTER":168.1719,"MEAN_ANOMALY":191.9375,"EPHEMERIS_TYPE":0,"CLASSIFICATION_TYPE":"U","NORAD_CAT_ID":66167,"ELEMENT_SET_NO":999,"REV_AT_EPOCH":2192,"BSTAR":0.00082102758,"MEAN_MOTION_DOT":0.00024046,"MEAN_MOTION_DDOT":0},{"OBJECT_NAME":"STARLINK-35578","OBJECT_ID":"2025-240Y","EPOCH":"2026-03-09T06:17:54.970656","MEAN_MOTION":15.30203089,"ECCENTRICITY":0.00011702,"INCLINATION":53.1593,"RA_OF_ASC_NODE":64.7344,"ARG_OF_PERICENTER":101.5709,"MEAN_ANOMALY":258.5423,"EPHEMERIS_TYPE":0,"CLASSIFICATION_TYPE":"U","NORAD_CAT_ID":66168,"ELEMENT_SET_NO":999,"REV_AT_EPOCH":2192,"BSTAR":0.0005111487,"MEAN_MOTION_DOT":0.00014811,"MEAN_MOTION_DDOT":0},{"OBJECT_NAME":"STARLINK-35638","OBJECT_ID":"2025-240Z","EPOCH":"2026-03-09T05:06:39.453696","MEAN_MOTION":15.30190887,"ECCENTRICITY":0.0001351,"INCLINATION":53.1589,"RA_OF_ASC_NODE":65.1441,"ARG_OF_PERICENTER":64.8493,"MEAN_ANOMALY":295.2648,"EPHEMERIS_TYPE":0,"CLASSIFICATION_TYPE":"U","NORAD_CAT_ID":66169,"ELEMENT_SET_NO":999,"REV_AT_EPOCH":2191,"BSTAR":0.00040601082,"MEAN_MOTION_DOT":0.00011681,"MEAN_MOTION_DDOT":0},{"OBJECT_NAME":"STARLINK-35585","OBJECT_ID":"2025-240AA","EPOCH":"2026-03-09T10:11:37.865184","MEAN_MOTION":15.30217853,"ECCENTRICITY":0.00016445,"INCLINATION":53.1589,"RA_OF_ASC_NODE":64.3324,"ARG_OF_PERICENTER":80.3548,"MEAN_ANOMALY":279.7639,"EPHEMERIS_TYPE":0,"CLASSIFICATION_TYPE":"U","NORAD_CAT_ID":66170,"ELEMENT_SET_NO":999,"REV_AT_EPOCH":2194,"BSTAR":0.00060128196,"MEAN_MOTION_DOT":0.00017501,"MEAN_MOTION_DDOT":0},{"OBJECT_NAME":"STARLINK-35606","OBJECT_ID":"2025-240AB","EPOCH":"2026-03-09T09:12:20.711520","MEAN_MOTION":15.30206725,"ECCENTRICITY":7.836e-5,"INCLINATION":53.1604,"RA_OF_ASC_NODE":64.0717,"ARG_OF_PERICENTER":99.4375,"MEAN_ANOMALY":260.6714,"EPHEMERIS_TYPE":0,"CLASSIFICATION_TYPE":"U","NORAD_CAT_ID":66171,"ELEMENT_SET_NO":999,"REV_AT_EPOCH":2194,"BSTAR":0.00081215723,"MEAN_MOTION_DOT":0.00023777,"MEAN_MOTION_DDOT":0},{"OBJECT_NAME":"STARLINK-35627","OBJECT_ID":"2025-240AC","EPOCH":"2026-03-09T09:35:08.548800","MEAN_MOTION":15.30194238,"ECCENTRICITY":0.00012213,"INCLINATION":53.1592,"RA_OF_ASC_NODE":64.1727,"ARG_OF_PERICENTER":81.7463,"MEAN_ANOMALY":278.3676,"EPHEMERIS_TYPE":0,"CLASSIFICATION_TYPE":"U","NORAD_CAT_ID":66172,"ELEMENT_SET_NO":999,"REV_AT_EPOCH":2194,"BSTAR":0.0012445231,"MEAN_MOTION_DOT":0.00036675,"MEAN_MOTION_DDOT":0}]
